1 45714U 20035BK  22365.76547779  .00002139  00000-0  16244-3 0  9996
2 45714  53.0542 221.6852 0001527  80.2209 279.8952 15.06409071143726
1 45714U 20035BK  22365.89820704 -.00002949  00000-0 -17929-3 0  9994
2 45714  53.0542 221.0897 0001604  77.9353 282.1816 15.06370500143335
1 45714U 20035BK  23001.62801115 -.00001936  00000-0 -11115-3 0  9994
2 45714  53.0544 217.8126 0001544  77.4517 282.6645 15.06392699143850
1 45714U 20035BK  23001.89339496 -.00001199  00000-0 -61638-4 0  9998
2 45714  53.0540 216.6220 0001524  79.7243 280.3918 15.06396952143895
1 45714U 20035BK  23001.89339496 -.00001199  00000-0 -61638-4 0  9998
2 45714  53.0540 216.6220 0001524  79.7243 280.3918 15.06396952143480
1 45714U 20035BK  23002.29147364 -.00000618  00000-0 -22562-4 0  9992
2 45714  53.0544 214.8346 0001541  79.0552 281.0610 15.06399977143957
1 45714U 20035BK  23002.68955569  .00001299  00000-0  10611-3 0  9994
2 45714  53.0543 213.0473 0001527  76.8655 283.2505 15.06392317144017
1 45714U 20035BK  23003.08763757  .00001582  00000-0  12510-3 0  9990
2 45714  53.0542 211.2607 0001568  67.9572 292.1583 15.06393838143663
1 45714U 20035BK  23003.28668599  .00004185  00000-0  29982-3 0  9993
2 45714  53.0542 210.3672 0001604  77.8567 282.2602 15.06382113144106
1 45714U 20035BK  23003.28668599  .00004185  00000-0  29982-3 0  9993
2 45714  53.0542 210.3672 0001604  77.8567 282.2602 15.06382113143699
1 45714U 20035BK  23003.81745799  .00001411  00000-0  11365-3 0  9995
2 45714  53.0542 207.9843 0001589  80.2142 279.9026 15.06394729143778
1 45714U 20035BK  23004.28188367  .00001773  00000-0  13793-3 0  9997
2 45714  53.0543 205.8996 0001636  79.6365 280.4808 15.06399227144254
1 45714U 20035BK  23004.81265386  .00001671  00000-0  13104-3 0  9996
2 45714  53.0543 203.5168 0001678  80.2661 279.8517 15.06405001144339
1 45714U 20035BK  23004.81265386  .00001671  00000-0  13104-3 0  9996
2 45714  53.0543 203.5168 0001678  80.2661 279.8517 15.06405001143923
1 45714U 20035BK  23005.54246580  .00003317  00000-0  24145-3 0  9998
2 45714  53.0532 200.2407 0001692  80.1603 279.9577 15.06409154144440
1 45714U 20035BK  23005.80784907  .00003832  00000-0  27589-3 0  9994
2 45714  53.0531 199.0493 0001701  80.9321 279.1861 15.06413540144481
1 45714U 20035BK  23006.47131986  .00000746  00000-0  68999-4 0  9993
2 45714  53.0533 196.0703 0001508  81.1356 278.9803 15.06404383144174
1 45714U 20035BK  23006.53766660  .00000504  00000-0  52713-4 0  9992
2 45714  53.0534 195.7725 0001503  81.3321 278.7838 15.06403667144590
1 45714U 20035BK  23007.20112887  .00001398  00000-0  11268-3 0  9994
2 45714  53.0533 192.7942 0001522  81.2382 278.8779 15.06409627144692
1 45714U 20035BK  23007.79825938 -.00001102  00000-0 -55102-4 0  9997
2 45714  53.0542 190.1136 0001534  82.1715 277.9448 15.06398493144783
1 45714U 20035BK  23007.79825938 -.00001102  00000-0 -55102-4 0  9997
2 45714  53.0542 190.1136 0001534  82.1715 277.9448 15.06398493144378
1 45714U 20035BK  23008.52807443  .00000314  00000-0  39980-4 0  9998
2 45714  53.0543 186.8374 0001464  80.7108 279.4046 15.06395597144897
1 45714U 20035BK  23008.85980605  .00000271  00000-0  37057-4 0  9991
2 45714  53.0543 185.3482 0001470  80.6731 279.4424 15.06400124144948
1 45714U 20035BK  23008.85980605  .00000271  00000-0  37057-4 0  9991
2 45714  53.0543 185.3482 0001470  80.6731 279.4424 15.06400124144533
1 45714U 20035BK  23009.45692469  .00001654  00000-0  12991-3 0  9991
2 45714  53.0542 182.6675 0001443  79.9896 280.1256 15.06399524145038
1 45714U 20035BK  23009.58962471  .00001575  00000-0  12464-3 0  9995
2 45714  53.0542 182.0718 0001380  82.6107 277.5039 15.06391312145054
1 45714U 20035BK  23009.58962471  .00001575  00000-0  12464-3 0  9995
2 45714  53.0542 182.0718 0001380  82.6107 277.5039 15.06391312144648
1 45714U 20035BK  23010.45213598  .00000516  00000-0  53528-4 0  9993
2 45714  53.0544 178.1995 0001228  80.1610 279.9518 15.06393957145181
1 45714U 20035BK  23010.71752011  .00001090  00000-0  92026-4 0  9994
2 45714  53.0543 177.0084 0001167  80.0837 280.0284 15.06397166145223
1 45714U 20035BK  23010.71752011  .00001090  00000-0  92026-4 0  9994
2 45714  53.0543 177.0084 0001167  80.0837 280.0284 15.06397166144817
1 45714U 20035BK  23011.71271135 -.00002469  00000-0 -14684-3 0  9994
2 45714  53.0540 172.5404 0001565  76.7732 283.3431 15.06418011144967
1 45714U 20035BK  23011.84541199  .00002368  00000-0  17784-3 0  9998
2 45714  53.0540 171.9449 0001482  79.5156 280.6000 15.06400598145399
1 45714U 20035BK  23011.84541199  .00002368  00000-0  17784-3 0  9998
2 45714  53.0540 171.9449 0001482  79.5156 280.6000 15.06400598144983
1 45714U 20035BK  23013.37138048  .00001575  00000-0  12461-3 0  9999
2 45714  53.0541 165.0941 0001517  80.2704 279.8456 15.06407343145624
1 45714U 20035BK  23013.37138048  .00001575  00000-0  12461-3 0  9999
2 45714  53.0541 165.0941 0001517  80.2704 279.8456 15.06407343145219
1 45714U 20035BK  23013.70312545 -.00000843  00000-0 -37676-4 0  9997
2 45714  53.0544 163.6041 0001893  88.6568 271.4638 15.06391235145676
1 45714U 20035BK  23013.70312545 -.00000843  00000-0 -37676-4 0  9997
2 45714  53.0544 163.6041 0001893  88.6568 271.4638 15.06391235145261
1 45714U 20035BK  23014.43295116  .00000508  00000-0  53037-4 0  9997
2 45714  53.0512 160.3289 0001475  93.4398 266.6759 15.06365535145371
1 45714U 20035BK  23014.76468323  .00001529  00000-0  12162-3 0  9992
2 45714  53.0517 158.8392 0001409  95.3807 264.7342 15.06375779145420
1 45714U 20035BK  23015.09641469  .00002686  00000-0  19922-3 0  9999
2 45714  53.0533 157.3516 0001551  95.2186 264.8980 15.06383666145475
1 45714U 20035BK  23015.42816101  .00001254  00000-0  10314-3 0  9999
2 45714  53.0522 155.8615 0001347  97.7947 262.3195 15.06374970145931
1 45714U 20035BK  23015.42816101  .00001254  00000-0  10314-3 0  9999
2 45714  53.0522 155.8615 0001347  97.7947 262.3195 15.06374970145526
1 45714U 20035BK  23015.75988627  .00002717  00000-0  20126-3 0  9995
2 45714  53.0544 154.3728 0001291  97.7678 262.3457 15.06390058145984
1 45714U 20035BK  23015.75988627  .00002717  00000-0  20126-3 0  9995
2 45714  53.0544 154.3728 0001291  97.7678 262.3457 15.06390058145579
1 45714U 20035BK  23016.62240994  .00001367  00000-0  11068-3 0  9995
2 45714  53.0560 150.5021 0001218  94.6053 265.5075 15.06382745146119
1 45714U 20035BK  23016.75509855  .00001503  00000-0  11978-3 0  9995
2 45714  53.0537 149.9047 0001046  81.6134 278.4974 15.06391064146135
1 45714U 20035BK  23016.75509855  .00001503  00000-0  11978-3 0  9995
2 45714  53.0537 149.9047 0001046  81.6134 278.4974 15.06391064145729
1 45714U 20035BK  23017.48492768  .00000383  00000-0  44654-4 0  9993
2 45714  53.0540 146.6291 0001390  83.5063 276.6084 15.06381183145837
1 45714U 20035BK  23017.61761966  .00000709  00000-0  66491-4 0  9992
2 45714  53.0541 146.0339 0001167  85.4873 274.6249 15.06383853146262
1 45714U 20035BK  23018.34742630  .00002184  00000-0  16551-3 0  9990
2 45714  53.0541 142.7560 0001171  80.8407 279.2714 15.06396243145969
1 45714U 20035BK  23018.61280629  .00003449  00000-0  25025-3 0  9996
2 45714  53.0555 141.5684 0001136  67.6504 292.4606 15.06406218146412
1 45714U 20035BK  23018.61280629  .00003449  00000-0  25025-3 0  9996
2 45714  53.0555 141.5684 0001136  67.6504 292.4606 15.06406218146007
1 45714U 20035BK  23018.67914753  .00002659  00000-0  19726-3 0  9997
2 45714  53.0559 141.2671 0001290  72.4339 287.6791 15.06417380146424
1 45714U 20035BK  23018.67914753  .00002659  00000-0  19726-3 0  9997
2 45714  53.0559 141.2671 0001290  72.4339 287.6791 15.06417380146019
1 45714U 20035BK  23019.34263602  .00001960  00000-0  15045-3 0  9996
2 45714  53.0540 138.2890 0001467  81.4417 278.6738 15.06391605146529
1 45714U 20035BK  23019.34263602  .00001960  00000-0  15045-3 0  9996
2 45714  53.0540 138.2890 0001467  81.4417 278.6738 15.06391605146114
1 45714U 20035BK  23020.47052620 -.00000535  00000-0 -17003-4 0  9994
2 45714  53.0542 133.2253 0001360  77.5131 282.6010 15.06404732146692
1 45714U 20035BK  23020.47052620 -.00000535  00000-0 -17003-4 0  9994
2 45714  53.0542 133.2253 0001360  77.5131 282.6010 15.06404732146287
1 45714U 20035BK  23021.13400238 -.00001102  00000-0 -55125-4 0  9998
2 45714  53.0538 130.2479 0001374  92.1220 267.9926 15.06386529146382
1 45714U 20035BK  23021.66476765  .00002792  00000-0  20624-3 0  9993
2 45714  53.0541 127.8663 0001421  93.8452 266.2699 15.06405035146463
1 45714U 20035BK  23022.65995597  .00002413  00000-0  18074-3 0  9998
2 45714  53.0537 123.3953 0001454 115.0512 245.0628 15.06420640146614
1 45714U 20035BK  23022.99171208 -.00000245  00000-0  24774-5 0  9998
2 45714  53.0565 121.9137 0001435  78.1526 281.9624 15.06395116146665
1 45714U 20035BK  23023.58883945  .00000622  00000-0  60656-4 0  9998
2 45714  53.0544 119.2267 0001489  91.7384 268.3776 15.06388326146750
1 45714U 20035BK  23024.45132691  .00005051  00000-0  35756-3 0  9993
2 45714  53.0535 115.3545 0001431  91.7131 268.4022 15.06418272146886
1 45714U 20035BK  23025.51288885 -.00001957  00000-0 -11259-3 0  9993
2 45714  53.0535 110.5901 0001329  87.2084 272.9057 15.06383911147455
1 45714U 20035BK  23025.51288885 -.00001957  00000-0 -11259-3 0  9993
2 45714  53.0535 110.5901 0001329  87.2084 272.9057 15.06383911147040
1 45714U 20035BK  23025.57923728  .00000597  00000-0  58975-4 0  9995
2 45714  53.0543 110.2901 0001248  88.0105 272.1027 15.06383989147469
1 45714U 20035BK  23026.44174694  .00017506  00000-0  11908-2 0  9993
2 45714  53.0530 106.4214 0001165  88.2693 271.8430 15.06413398147597
1 45714U 20035BK  23026.44174694  .00017506  00000-0  11908-2 0  9993
2 45714  53.0530 106.4214 0001165  88.2693 271.8430 15.06413398147182
1 45714U 20035BK  23026.90617308  .00008369  00000-0  57992-3 0  9999
2 45714  53.0535 104.3347 0001611  82.5640 277.5532 15.06408850147257
1 45714U 20035BK  23027.37060374  .00000211  00000-0  33030-4 0  9992
2 45714  53.0527 102.2509 0001136  91.7411 268.3708 15.06395975147734
1 45714U 20035BK  23027.37060374  .00000211  00000-0  33030-4 0  9992
2 45714  53.0527 102.2509 0001136  91.7411 268.3708 15.06395975147329
1 45714U 20035BK  23027.90138207  .00011047  00000-0  75943-3 0  9999
2 45714  53.0530  99.8687 0000969  86.2083 273.9016 15.06395332147813
1 45714U 20035BK  23028.49850495  .00008253  00000-0  57227-3 0  9994
2 45714  53.0537  97.1883 0001081  85.5267 274.5845 15.06400388147906
1 45714U 20035BK  23028.49850495  .00008253  00000-0  57227-3 0  9994
2 45714  53.0537  97.1883 0001081  85.5267 274.5845 15.06400388147490
1 45714U 20035BK  23028.89658635  .00004381  00000-0  31285-3 0  9994
2 45714  53.0530  95.4012 0001067  89.4026 270.7085 15.06398745147967
1 45714U 20035BK  23029.42736241  .00003150  00000-0  23030-3 0  9996
2 45714  53.0536  93.0184 0001117  88.0509 272.0608 15.06398659147638
1 45714U 20035BK  23029.89179013  .00002352  00000-0  17672-3 0  9993
2 45714  53.0537  90.9316 0001045  86.5060 273.6048 15.06398926148113
1 45714U 20035BK  23030.35621920  .00001354  00000-0  10978-3 0  9998
2 45714  53.0539  88.8469 0001056  87.7208 272.3902 15.06397211147771
1 45714U 20035BK  23030.48891137  .00001815  00000-0  14068-3 0  9997
2 45714  53.0534  88.2511 0001140  87.8861 272.2258 15.06401244148202
1 45714U 20035BK  23030.88699582  .00000881  00000-0  78028-4 0  9990
2 45714  53.0544  86.4632 0001292  89.3724 270.7413 15.06396520148262
1 45714U 20035BK  23031.48411523  .00000960  00000-0  83296-4 0  9995
2 45714  53.0533  83.7837 0001135  87.5278 272.5840 15.06401035147943
